STARLINK-2022           
1 47643U 21012Z   24156.12105898  .00021347  00000+0  14464-2 0  9999
2 47643  53.0552  60.7062 0000979  90.2050 269.9051 15.06432800182741
